#dP2020  2 18  0  0  0.00000000      96 __u+U ITR00 FIT  IAC
## 2093 172800.00000000   900.00000000 58897 0.0000000000000
+  116   C01C02C03C04C05C06C07C08C09C10C11C12C13C14C16C18C19
+        C20C21C22C23C24C25C26C27C28C29C30C32C33C34C35C36C37
+        E01E02E03E04E05E07E08E09E11E12E13E14E15E18E19E21E24
+        E25E26E27E30E31E33E36G01G02G03G04G05G06G07G08G09G10
+        G11G12G13G14G15G16G17G18G19G20G21G22G23G24G25G26G27
+        G28G29G30G31G32J01J02J03J07R01R02R03R04R05R07R08R09
+        R11R12R13R14R15R16R17R18R19R20R21R22R23R26  0  0  0
++        14  0  0 13 13  8  8  9  8  8  8  8  8  9  8  0  7
++         7  7  7  8  8  8  8  8  8  7  8  8  8  8  8  8  9
++         5  5  5  5  5  4  5  5  5  5  4  4  5  5  5  4  5
++         5  4  5  5  5  5  5  3  4  3  3  4  3  3  3  3  3
++         3  3  4  3  4  4  3  4  3  3  3  3  3  3  3  3  4
++         3  3  3  3  3  9  9  8  0  6  5  5  5  5  6  6  5
++         5  5  6  6  5  6  6  5  6  6  5  5  6  8  0  0  0
%c M  cc GPS ccc cccc cccc cccc cccc ccccc ccccc ccccc ccccc
%c cc cc ccc ccc cccc cccc cccc cccc ccccc ccccc ccccc ccccc
%f  0.0000000  0.000000000  0.00000000000  0.000000000000000
%f  0.0000000  0.000000000  0.00000000000  0.000000000000000
%i    0    0    0    0      0      0      0      0         0
%i    0    0    0    0      0      0      0      0         0
/* INFORMATION & ANALYSIS CENTER (IAC)            RAPID DATA
/* S/V CLOCKS ARE ALIGNED TO GNSS TIME                      
/* G:C1WC2W R:C1PC2P E:C1XC5X C:C2IC6I J:C1CC2S             
/* PCV:IGS14_2091 OL/AL:FES2004  NONE     YN ORB:CoN CLK:CoN
*  2020 02 18 10  0  0.00000000
PC01 -32296.073266  27083.608313    879.778754    214.744555
PC02   4480.869298  41904.563156  -1072.412713 999999.999999
PC03      0.000000      0.000000      0.000000 999999.999999
PC04 -39609.421523  14473.354969    473.164253   -417.294559
PC05  21862.914942  35983.982242  -1353.488600   -362.526587
PC06  -6287.411926  32194.954331 -25876.217219    245.044339
PC07 -18136.604670  23224.041454  30185.957515    -80.865359
PC08 -22202.244547  35816.193087  -3999.877613   -122.324691
PC09   3110.356281  38754.617029 -15603.755764    342.417049
PC10  -3131.223321  26040.389280  33167.149704   -672.327004
PC11  -3531.183079 -27644.780902    841.633199   -189.524546
PC12   8268.924765 -21093.741554 -16236.834800    320.489696
PC13 -12019.660831  37011.095445 -16454.113082    273.880046
PC14  -7633.625015 -18151.290408  19782.111747    164.890279
PC16  -3543.728630  33893.689195 -24680.607614   -772.720184
PC18  -5478.884649  26342.414867  32405.459009 999999.999999
PC19  17002.397365  17350.681074 -13719.498169    328.996921
PC20  -1913.585291  16218.979567 -22613.988459   -729.602515
PC21  20372.262225  -5337.593667  18335.538383    -87.624166
PC22  26391.185499   8488.041767   3322.344091   -872.196642
PC23 -21428.644481     52.633346 -17881.231497   -894.715342
PC24  11964.481216 -21071.019233 -13826.806982   -930.365390
PC25  -7472.281358 -14516.201725 -22635.589389   -520.087345
PC26  22869.138085 -15795.424587   2274.879686    575.694998
PC27 -13344.181963  12457.579685  21089.184099    280.462929
PC28 -15756.709842  -8788.148715  21294.795963    271.402108
PC29   9897.149379  24468.280481  -9054.268813    189.298921
PC30  -2347.514588  26365.216237   8803.548590    273.726795
PC32 -20315.784560   5492.681410 -18309.589222   -873.447742
PC33 -16982.567993 -17313.742814  13798.707593   -922.113979
PC34   2165.975164 -26535.290232  -8408.854074   -480.111883
PC35  16080.408627   8366.691887 -21202.443633   -888.524649
PC36   6902.774739  14836.609567  22624.026162   -828.942653
PC37 -23421.254374  14917.407986  -2859.243966   -878.261679
PE01   5348.547605 -17186.579080 -23499.100240   -797.326183
PE02  -5292.920659  17183.993884  23513.453557    113.565414
PE03   4229.810212  23267.204069 -17812.561089   -267.605676
PE04 -19353.840079 -22362.643143   1251.340284   -468.250167
PE05 -13555.603588  10529.648654 -24116.218197   -404.381322
PE07  23297.540219   8271.065640  16287.483824   -342.644634
PE08  19620.622491  22145.591128  -1068.554278   6218.650681
PE09 -23257.899308  -8094.386602 -16411.852681   6152.435000
PE11 -17040.805612   1136.969107  24176.652168   1319.881681
PE12  -8090.598596 -19874.814318  20408.577366   5945.487012
PE13  16908.741418   -977.023894 -24263.021407    398.466120
PE14  19036.862610  20230.183463 -11944.168123   -909.679909
PE15   8237.283093  19633.036511 -20545.976894    876.876251
PE18  -9649.195779 -25041.424469   -315.537815  -1007.121647
PE19  -2362.212727 -22405.711419  19201.523615     -1.481686
PE21  23892.788937 -13183.600466 -11462.982817   -583.334027
PE24 -28631.900800   1138.788111  -7494.944531   5603.936784
PE25 -23977.547166  13133.125006  11360.906793   -504.279346
PE26  15790.065027 -21131.265230 -13415.369099   3515.725025
PE27  28615.868632  -1365.566919   7421.207429    279.848440
PE30  16284.349506  11420.825238  21904.224223   4133.909242
PE31 -16526.341776 -11193.714340 -21856.446368   -471.746849
PE33   5262.232367 -28739.705855   4790.008091   -470.245662
PE36 -15672.703106  21005.495256  13765.335780    596.778283
PG01 -14340.409685  22129.316853   -886.002835   -298.802176
PG02  18164.152029  -7000.827716 -17390.795049   -406.940810
PG03 -11083.062564  13260.587891 -20197.745383    -97.343038
PG04  -3921.956743  20076.915163 -16921.375209    -50.529359
PG05  26083.740963  -2456.301913   4823.723093     -7.782810
PG06  13780.688486   5886.821021 -21877.271309   -211.343323
PG07  -1048.224414  21305.095290  15802.202882   -217.139595
PG08 -11299.014994  10473.406357  21635.772922    -24.174734
PG09   5330.608558  24445.134176  -8948.550572   -158.243132
PG10 -18772.079802 -11632.244563  15003.812505   -249.203745
PG11 -12583.756138  19353.787935  12890.850069   -357.810408
PG12  14677.726934 -11072.707304 -19331.825464    149.954936
PG13  15178.702282  -1618.557450  21618.621441    -11.976615
PG14 -16884.807663 -13087.203150 -15566.276152    -31.702621
PG15  10536.963916 -12331.945407  20674.612731   -250.754275
PG16 -26264.503821   -662.377640   5101.912970   -125.782295
PG17  14191.636259  21120.138803  -7279.061297    218.046417
PG18 -16996.875409  18908.950833   7013.231508      3.185365
PG19  16221.263870  15084.028166 -14946.325410   -197.082154
PG20  -8356.467687 -14662.550933  20463.346834    527.870259
PG21  -1856.119526 -21022.894069  17065.794140    -39.411946
PG22 -18866.375816  11209.253206 -14657.562928   -784.749416
PG23  -2362.951077  20610.215850 -16008.952420   -135.523375
PG24  14327.020870 -22058.079398   1553.322596     -9.229880
PG25   1066.099987 -15147.810600 -22019.187505    -12.703627
PG26 -25921.454963  -4281.128656  -4664.818433    150.764947
PG27 -16409.117236  -1674.446990  20770.126517   -214.544944
PG28  18514.024283  12863.767087  14517.841702    738.453033
PG29  -2838.028238 -24437.359481 -10021.012867    -35.978933
PG30   8458.258580  14235.609486  20760.384196   -155.969547
PG31 -15887.806878  -3315.631624 -21138.988347    -23.992688
PG32 -16107.793136 -19621.094500  -7985.260788    215.377197
PJ01 -25107.448831  17732.892982 -24238.628732   -325.674117
PJ02 -31305.831587  27073.913620  12784.265010     -1.389829
PJ03 -25677.159268  25313.854543  26960.511278     -0.571759
PJ07      0.000000      0.000000      0.000000 999999.999999
PR01  22291.406397   9837.647145   7572.213234     57.261738
PR02  11903.350920  -4619.100171  22109.565662    412.514561
PR03  -4575.419372 -14672.882041  20411.686447     10.199827
PR04 -18384.111264 -16166.015769   7197.304558     39.148681
PR05 -21736.100628  -8686.219918 -10155.875308     45.225415
PR07   5067.982524  14821.842236 -20084.618290    -33.349534
PR08  18355.342607  16200.057949  -7086.680660    -50.584450
PR09 -19347.297847  14320.400176   8358.532106    117.443422
PR11  10532.688919   6765.502278  22240.591740    -13.887022
PR12  21782.168122  -4277.651378  12562.024259    106.754770
PR13  21017.777046 -13529.124867  -5097.135585    -34.945360
PR14   7990.840717 -14421.371918 -19458.958737     48.263996
PR15  -9594.875654  -7165.033853 -22507.951120    105.953056
PR16 -21981.939228   4935.405845 -12114.440291     -1.565028
PR17   2540.915854 -25284.410330  -1995.679352    302.005320
PR18  -5101.637959 -20519.975454  14333.270938     25.532211
PR19  -9815.887570  -5298.054267  22946.630304    -79.672391
PR20  -9466.711294  15422.518371  17968.206569   -404.418009
PR21  -2197.591042  25399.890884   1144.238866   -105.697868
PR22   6093.053082  18403.967378 -16493.582619    -14.459969
PR23  10558.999387  -2040.709175 -23131.268117    287.159661
PR26  -9986.591144  11718.598079  20360.721462   -406.609077
EOF
